[{"OBJECT_NAME":"STARLINK-37145","OBJECT_ID":"2026-070G","EPOCH":"2026-04-10T06:00:00.999648","MEAN_MOTION":15.98675614,"ECCENTRICITY":8.428e-5,"INCLINATION":53.1586,"RA_OF_ASC_NODE":226.6872,"ARG_OF_PERICENTER":69.1006,"MEAN_ANOMALY":109.1637,"EPHEMERIS_TYPE":0,"CLASSIFICATION_TYPE":"U","NORAD_CAT_ID":68548,"ELEMENT_SET_NO":999,"REV_AT_EPOCH":245,"BSTAR":-0.0020348914,"MEAN_MOTION_DOT":-0.00992767,"MEAN_MOTION_DDOT":0.0003232151},{"OBJECT_NAME":"STARLINK-36204","OBJECT_ID":"2026-070H","EPOCH":"2026-04-10T06:00:00.999648","MEAN_MOTION":15.98912762,"ECCENTRICITY":7.731e-5,"INCLINATION":53.1589,"RA_OF_ASC_NODE":226.6775,"ARG_OF_PERICENTER":73.8452,"MEAN_ANOMALY":109.0438,"EPHEMERIS_TYPE":0,"CLASSIFICATION_TYPE":"U","NORAD_CAT_ID":68549,"ELEMENT_SET_NO":999,"REV_AT_EPOCH":240,"BSTAR":-0.0020756567,"MEAN_MOTION_DOT":-0.01025913,"MEAN_MOTION_DDOT":0.00034386841},{"OBJECT_NAME":"STARLINK-36304","OBJECT_ID":"2026-070J","EPOCH":"2026-04-10T06:00:00.999648","MEAN_MOTION":15.99134574,"ECCENTRICITY":7.971e-5,"INCLINATION":53.1588,"RA_OF_ASC_NODE":226.6677,"ARG_OF_PERICENTER":70.42,"MEAN_ANOMALY":117.064,"EPHEMERIS_TYPE":0,"CLASSIFICATION_TYPE":"U","NORAD_CAT_ID":68550,"ELEMENT_SET_NO":999,"REV_AT_EPOCH":240,"BSTAR":-0.0020782164,"MEAN_MOTION_DOT":-0.01039984,"MEAN_MOTION_DDOT":0.00035328846},{"OBJECT_NAME":"STARLINK-37288","OBJECT_ID":"2026-070K","EPOCH":"2026-04-10T06:00:00.999648","MEAN_MOTION":15.9923105,"ECCENTRICITY":7.981e-5,"INCLINATION":53.1586,"RA_OF_ASC_NODE":226.6638,"ARG_OF_PERICENTER":69.1424,"MEAN_ANOMALY":120.2518,"EPHEMERIS_TYPE":0,"CLASSIFICATION_TYPE":"U","NORAD_CAT_ID":68551,"ELEMENT_SET_NO":999,"REV_AT_EPOCH":245,"BSTAR":-0.002067045,"MEAN_MOTION_DOT":-0.0104006,"MEAN_MOTION_DDOT":0.0003536991},{"OBJECT_NAME":"STARLINK-37295","OBJECT_ID":"2026-070L","EPOCH":"2026-04-10T06:00:00.999648","MEAN_MOTION":15.99030793,"ECCENTRICITY":7.567e-5,"INCLINATION":53.1585,"RA_OF_ASC_NODE":226.6723,"ARG_OF_PERICENTER":71.2562,"MEAN_ANOMALY":114.1439,"EPHEMERIS_TYPE":0,"CLASSIFICATION_TYPE":"U","NORAD_CAT_ID":68552,"ELEMENT_SET_NO":999,"REV_AT_EPOCH":245,"BSTAR":-0.0020776206,"MEAN_MOTION_DOT":-0.01033666,"MEAN_MOTION_DDOT":0.00034902585},{"OBJECT_NAME":"STARLINK-37254","OBJECT_ID":"2026-070M","EPOCH":"2026-04-10T06:00:00.999648","MEAN_MOTION":15.99467596,"ECCENTRICITY":7.488e-5,"INCLINATION":53.1584,"RA_OF_ASC_NODE":226.6532,"ARG_OF_PERICENTER":76.7763,"MEAN_ANOMALY":117.7041,"EPHEMERIS_TYPE":0,"CLASSIFICATION_TYPE":"U","NORAD_CAT_ID":68553,"ELEMENT_SET_NO":999,"REV_AT_EPOCH":245,"BSTAR":-0.0020632389,"MEAN_MOTION_DOT":-0.01052039,"MEAN_MOTION_DDOT":0.00036202567},{"OBJECT_NAME":"STARLINK-37255","OBJECT_ID":"2026-070N","EPOCH":"2026-04-10T06:00:00.999648","MEAN_MOTION":15.99562965,"ECCENTRICITY":7.268e-5,"INCLINATION":53.1585,"RA_OF_ASC_NODE":226.6494,"ARG_OF_PERICENTER":68.949,"MEAN_ANOMALY":127.4914,"EPHEMERIS_TYPE":0,"CLASSIFICATION_TYPE":"U","NORAD_CAT_ID":68554,"ELEMENT_SET_NO":999,"REV_AT_EPOCH":245,"BSTAR":-0.0020479652,"MEAN_MOTION_DOT":-0.01049951,"MEAN_MOTION_DDOT":0.000361094},{"OBJECT_NAME":"STARLINK-37146","OBJECT_ID":"2026-070P","EPOCH":"2026-04-10T06:00:00.999648","MEAN_MOTION":15.99355413,"ECCENTRICITY":7.308e-5,"INCLINATION":53.1587,"RA_OF_ASC_NODE":226.6584,"ARG_OF_PERICENTER":72.1369,"MEAN_ANOMALY":119.9152,"EPHEMERIS_TYPE":0,"CLASSIFICATION_TYPE":"U","NORAD_CAT_ID":68555,"ELEMENT_SET_NO":999,"REV_AT_EPOCH":245,"BSTAR":-0.0020754991,"MEAN_MOTION_DOT":-0.01051572,"MEAN_MOTION_DDOT":0.00036130055},{"OBJECT_NAME":"STARLINK-37144","OBJECT_ID":"2026-070Q","EPOCH":"2026-04-10T06:00:00.999648","MEAN_MOTION":15.99791487,"ECCENTRICITY":6.238e-5,"INCLINATION":53.1588,"RA_OF_ASC_NODE":226.6391,"ARG_OF_PERICENTER":74.781,"MEAN_ANOMALY":126.5047,"EPHEMERIS_TYPE":0,"CLASSIFICATION_TYPE":"U","NORAD_CAT_ID":68556,"ELEMENT_SET_NO":999,"REV_AT_EPOCH":245,"BSTAR":-0.0020300556,"MEAN_MOTION_DOT":-0.01054354,"MEAN_MOTION_DDOT":0.00036473545},{"OBJECT_NAME":"STARLINK-37210","OBJECT_ID":"2026-070R","EPOCH":"2026-04-10T06:00:00.999648","MEAN_MOTION":15.99688054,"ECCENTRICITY":7.054e-5,"INCLINATION":53.1587,"RA_OF_ASC_NODE":226.6444,"ARG_OF_PERICENTER":73.4444,"MEAN_ANOMALY":125.6363,"EPHEMERIS_TYPE":0,"CLASSIFICATION_TYPE":"U","NORAD_CAT_ID":68557,"ELEMENT_SET_NO":999,"REV_AT_EPOCH":245,"BSTAR":-0.0020477046,"MEAN_MOTION_DOT":-0.01057239,"MEAN_MOTION_DDOT":0.00036613854},{"OBJECT_NAME":"STARLINK-37227","OBJECT_ID":"2026-070S","EPOCH":"2026-04-10T06:00:00.999648","MEAN_MOTION":15.99896571,"ECCENTRICITY":6.72e-5,"INCLINATION":53.1585,"RA_OF_ASC_NODE":226.6346,"ARG_OF_PERICENTER":71.2484,"MEAN_ANOMALY":132.2633,"EPHEMERIS_TYPE":0,"CLASSIFICATION_TYPE":"U","NORAD_CAT_ID":68558,"ELEMENT_SET_NO":999,"REV_AT_EPOCH":245,"BSTAR":-0.0020125765,"MEAN_MOTION_DOT":-0.01051602,"MEAN_MOTION_DDOT":0.00036342412},{"OBJECT_NAME":"STARLINK-37294","OBJECT_ID":"2026-070T","EPOCH":"2026-04-10T06:00:00.999648","MEAN_MOTION":16.00012259,"ECCENTRICITY":6.802e-5,"INCLINATION":53.1587,"RA_OF_ASC_NODE":226.6295,"ARG_OF_PERICENTER":75.2998,"MEAN_ANOMALY":130.6851,"EPHEMERIS_TYPE":0,"CLASSIFICATION_TYPE":"U","NORAD_CAT_ID":68559,"ELEMENT_SET_NO":999,"REV_AT_EPOCH":245,"BSTAR":-0.0019943922,"MEAN_MOTION_DOT":-0.01049047,"MEAN_MOTION_DDOT":0.00036227803},{"OBJECT_NAME":"STARLINK-37291","OBJECT_ID":"2026-070U","EPOCH":"2026-04-10T06:00:00.999648","MEAN_MOTION":16.00120844,"ECCENTRICITY":7.323e-5,"INCLINATION":53.1587,"RA_OF_ASC_NODE":226.6251,"ARG_OF_PERICENTER":79.1446,"MEAN_ANOMALY":128.9733,"EPHEMERIS_TYPE":0,"CLASSIFICATION_TYPE":"U","NORAD_CAT_ID":68560,"ELEMENT_SET_NO":999,"REV_AT_EPOCH":245,"BSTAR":-0.0019923873,"MEAN_MOTION_DOT":-0.01054475,"MEAN_MOTION_DDOT":0.00036610902},{"OBJECT_NAME":"STARLINK-37114","OBJECT_ID":"2026-070V","EPOCH":"2026-04-10T06:00:00.999648","MEAN_MOTION":16.00216214,"ECCENTRICITY":7.43e-5,"INCLINATION":53.1587,"RA_OF_ASC_NODE":226.621,"ARG_OF_PERICENTER":76.0614,"MEAN_ANOMALY":134.0495,"EPHEMERIS_TYPE":0,"CLASSIFICATION_TYPE":"U","NORAD_CAT_ID":68561,"ELEMENT_SET_NO":999,"REV_AT_EPOCH":245,"BSTAR":-0.0019720855,"MEAN_MOTION_DOT":-0.01049511,"MEAN_MOTION_DDOT":0.00036336757},{"OBJECT_NAME":"STARLINK-37233","OBJECT_ID":"2026-070W","EPOCH":"2026-04-10T06:00:00.999648","MEAN_MOTION":16.00426669,"ECCENTRICITY":7.743e-5,"INCLINATION":53.1588,"RA_OF_ASC_NODE":226.612,"ARG_OF_PERICENTER":71.0664,"MEAN_ANOMALY":143.3799,"EPHEMERIS_TYPE":0,"CLASSIFICATION_TYPE":"U","NORAD_CAT_ID":68562,"ELEMENT_SET_NO":999,"REV_AT_EPOCH":245,"BSTAR":-0.0019456267,"MEAN_MOTION_DOT":-0.01048047,"MEAN_MOTION_DDOT":0.00036327751},{"OBJECT_NAME":"STARLINK-36238","OBJECT_ID":"2026-070X","EPOCH":"2026-04-10T06:00:00.999648","MEAN_MOTION":16.00317864,"ECCENTRICITY":7.766e-5,"INCLINATION":53.1586,"RA_OF_ASC_NODE":226.6166,"ARG_OF_PERICENTER":74.4099,"MEAN_ANOMALY":137.8007,"EPHEMERIS_TYPE":0,"CLASSIFICATION_TYPE":"U","NORAD_CAT_ID":68563,"ELEMENT_SET_NO":999,"REV_AT_EPOCH":240,"BSTAR":-0.001956501,"MEAN_MOTION_DOT":-0.0104734,"MEAN_MOTION_DDOT":0.00036240605},{"OBJECT_NAME":"STARLINK-37008","OBJECT_ID":"2026-070Y","EPOCH":"2026-04-10T06:00:00.999648","MEAN_MOTION":16.00541385,"ECCENTRICITY":7.853e-5,"INCLINATION":53.1586,"RA_OF_ASC_NODE":226.6075,"ARG_OF_PERICENTER":73.9184,"MEAN_ANOMALY":142.8501,"EPHEMERIS_TYPE":0,"CLASSIFICATION_TYPE":"U","NORAD_CAT_ID":68564,"ELEMENT_SET_NO":999,"REV_AT_EPOCH":245,"BSTAR":-0.0019394273,"MEAN_MOTION_DOT":-0.01051593,"MEAN_MOTION_DDOT":0.00036596231},{"OBJECT_NAME":"STARLINK-37161","OBJECT_ID":"2026-070Z","EPOCH":"2026-04-10T06:00:00.999648","MEAN_MOTION":16.00650085,"ECCENTRICITY":8.004e-5,"INCLINATION":53.1583,"RA_OF_ASC_NODE":226.6026,"ARG_OF_PERICENTER":72.0988,"MEAN_ANOMALY":146.884,"EPHEMERIS_TYPE":0,"CLASSIFICATION_TYPE":"U","NORAD_CAT_ID":68565,"ELEMENT_SET_NO":999,"REV_AT_EPOCH":245,"BSTAR":-0.0019250691,"MEAN_MOTION_DOT":-0.01050387,"MEAN_MOTION_DDOT":0.00036563434},{"OBJECT_NAME":"STARLINK-37212","OBJECT_ID":"2026-070AA","EPOCH":"2026-04-10T06:00:00.999648","MEAN_MOTION":16.00729857,"ECCENTRICITY":7.478e-5,"INCLINATION":53.1585,"RA_OF_ASC_NODE":226.599,"ARG_OF_PERICENTER":73.6377,"MEAN_ANOMALY":146.9395,"EPHEMERIS_TYPE":0,"CLASSIFICATION_TYPE":"U","NORAD_CAT_ID":68566,"ELEMENT_SET_NO":999,"REV_AT_EPOCH":245,"BSTAR":-0.0019089283,"MEAN_MOTION_DOT":-0.01046427,"MEAN_MOTION_DDOT":0.00036345766},{"OBJECT_NAME":"STARLINK-37261","OBJECT_ID":"2026-070AB","EPOCH":"2026-04-10T06:00:00.999648","MEAN_MOTION":16.0084879,"ECCENTRICITY":6.834e-5,"INCLINATION":53.1584,"RA_OF_ASC_NODE":226.5939,"ARG_OF_PERICENTER":74.4415,"MEAN_ANOMALY":148.7116,"EPHEMERIS_TYPE":0,"CLASSIFICATION_TYPE":"U","NORAD_CAT_ID":68567,"ELEMENT_SET_NO":999,"REV_AT_EPOCH":245,"BSTAR":-0.0018893474,"MEAN_MOTION_DOT":-0.01042873,"MEAN_MOTION_DDOT":0.00036169435},{"OBJECT_NAME":"STARLINK-37283","OBJECT_ID":"2026-070AC","EPOCH":"2026-04-10T06:00:00.999648","MEAN_MOTION":15.96258118,"ECCENTRICITY":9.376e-5,"INCLINATION":53.1586,"RA_OF_ASC_NODE":226.7008,"ARG_OF_PERICENTER":70.0137,"MEAN_ANOMALY":101.822,"EPHEMERIS_TYPE":0,"CLASSIFICATION_TYPE":"U","NORAD_CAT_ID":68568,"ELEMENT_SET_NO":999,"REV_AT_EPOCH":245,"BSTAR":-0.0031369977,"MEAN_MOTION_DOT":-0.01334039,"MEAN_MOTION_DDOT":0.00053897418},{"OBJECT_NAME":"STARLINK-37256","OBJECT_ID":"2026-070AD","EPOCH":"2026-04-10T06:00:00.999648","MEAN_MOTION":15.96110041,"ECCENTRICITY":0.00010231,"INCLINATION":53.1586,"RA_OF_ASC_NODE":226.7137,"ARG_OF_PERICENTER":70.9752,"MEAN_ANOMALY":94.554,"EPHEMERIS_TYPE":0,"CLASSIFICATION_TYPE":"U","NORAD_CAT_ID":68569,"ELEMENT_SET_NO":999,"REV_AT_EPOCH":245,"BSTAR":-0.003113978,"MEAN_MOTION_DOT":-0.0131386,"MEAN_MOTION_DDOT":0.00052341327},{"OBJECT_NAME":"STARLINK-37228","OBJECT_ID":"2026-070AE","EPOCH":"2026-04-10T06:00:00.999648","MEAN_MOTION":15.96406944,"ECCENTRICITY":9.444e-5,"INCLINATION":53.1588,"RA_OF_ASC_NODE":226.6892,"ARG_OF_PERICENTER":74.662,"MEAN_ANOMALY":102.7811,"EPHEMERIS_TYPE":0,"CLASSIFICATION_TYPE":"U","NORAD_CAT_ID":68570,"ELEMENT_SET_NO":999,"REV_AT_EPOCH":245,"BSTAR":-0.0031439207,"MEAN_MOTION_DOT":-0.01347726,"MEAN_MOTION_DDOT":0.00054994008}]
